start=new Date('2022-03-23T00:00:00.000Z').valueOf();
sats=[{"EPHEMERIS_TYPE":"0","COUNTRY_CODE":"US","MEAN_ELEMENT_THEORY":"SGP4","OBJECT_TYPE":"PAYLOAD","APOAPSIS":"548.202","MEAN_MOTION_DDOT":"0.0000000000000","MEAN_ANOMALY":"296.1388","TLE_LINE1":"1 48096U 21027E   22081.79381503  .00000396  00000-0  45465-4 0  9994","CLASSIFICATION_TYPE":"U","REV_AT_EPOCH":"5418","REF_FRAME":"TEME","OBJECT_ID":"2021-027E","ARG_OF_PERICENTER":"63.9745","MEAN_MOTION_DOT":"0.00000396","DECAY_DATE":null,"SITE":"AFETR","GP_ID":"199428318","PERIAPSIS":"546.256","EPOCH":"2022-03-22T19:03:05.618592","CENTER_NAME":"EARTH","LAUNCH_DATE":"2021-04-07","BSTAR":"0.00004546500000","RCS_SIZE":"LARGE","TIME_SYSTEM":"UTC","NORAD_CAT_ID":"48096","SEMIMAJOR_AXIS":"6925.364","INCLINATION":"53.0527","ELEMENT_SET_NO":"999","PERIOD":"95.592","ECCENTRICITY":"0.00014050","OBJECT_NAME":"STARLINK-2417","TLE_LINE2":"2 48096  53.0527 191.4847 0001405  63.9745 296.1388 15.06394852 54187","RA_OF_ASC_NODE":"191.4847","FILE":"3370190","MEAN_MOTION":"15.06394852"},{"REF_FRAME":"TEME","REV_AT_EPOCH":"5444","ARG_OF_PERICENTER":"82.7611","MEAN_MOTION_DOT":"-0.00001554","OBJECT_ID":"2021-027F","DECAY_DATE":null,"SITE":"AFETR","GP_ID":"199429067","EPHEMERIS_TYPE":"0","COUNTRY_CODE":"US","MEAN_ELEMENT_THEORY":"SGP4","OBJECT_TYPE":"PAYLOAD","APOAPSIS":"548.032","TLE_LINE1":"1 48097U 21027F   22081.64085370 -.00001554  00000-0 -85485-4 0  9997","CLASSIFICATION_TYPE":"U","MEAN_MOTION_DDOT":"0.0000000000000","MEAN_ANOMALY":"277.3512","ELEMENT_SET_NO":"999","INCLINATION":"53.0558","SEMIMAJOR_AXIS":"6925.352","PERIOD":"95.592","ECCENTRICITY":"0.00011770","OBJECT_NAME":"STARLINK-2418","RA_OF_ASC_NODE":"172.1721","TLE_LINE2":"2 48097  53.0558 172.1721 0001177  82.7611 277.3512 15.06398897 54448","MEAN_MOTION":"15.06398897","FILE":"3370190","PERIAPSIS":"546.402","CENTER_NAME":"EARTH","EPOCH":"2022-03-22T15:22:49.759680","BSTAR":"-0.00008548500000","LAUNCH_DATE":"2021-04-07","RCS_SIZE":"LARGE","TIME_SYSTEM":"UTC","NORAD_CAT_ID":"48097"},{"COUNTRY_CODE":"US","EPHEMERIS_TYPE":"0","MEAN_ELEMENT_THEORY":"SGP4","OBJECT_TYPE":"PAYLOAD","CLASSIFICATION_TYPE":"U","TLE_LINE1":"1 48098U 21027G   22081.48511191  .00000299  00000-0  38954-4 0  9997","MEAN_ANOMALY":"290.0892","MEAN_MOTION_DDOT":"0.0000000000000","APOAPSIS":"548.189","REF_FRAME":"TEME","REV_AT_EPOCH":"5427","ARG_OF_PERICENTER":"70.0247","MEAN_MOTION_DOT":"0.00000299","OBJECT_ID":"2021-027G","DECAY_DATE":null,"GP_ID":"199396551","SITE":"AFETR","CENTER_NAME":"EARTH","EPOCH":"2022-03-22T11:38:33.669024","PERIAPSIS":"546.256","BSTAR":"0.00003895400000","LAUNCH_DATE":"2021-04-07","NORAD_CAT_ID":"48098","TIME_SYSTEM":"UTC","RCS_SIZE":"LARGE","PERIOD":"95.592","INCLINATION":"53.0538","ELEMENT_SET_NO":"999","SEMIMAJOR_AXIS":"6925.358","OBJECT_NAME":"STARLINK-2421","ECCENTRICITY":"0.00013960","MEAN_MOTION":"15.06397060","FILE":"3369829","RA_OF_ASC_NODE":"182.8716","TLE_LINE2":"2 48098  53.0538 182.8716 0001396  70.0247 290.0892 15.06397060 54272"},{"APOAPSIS":"548.221","CLASSIFICATION_TYPE":"U","TLE_LINE1":"1 48099U 21027H   22081.60584095 -.00000308  00000-0 -17651-5 0  9990","MEAN_ANOMALY":"288.6968","MEAN_MOTION_DDOT":"0.0000000000000","OBJECT_TYPE":"PAYLOAD","MEAN_ELEMENT_THEORY":"SGP4","EPHEMERIS_TYPE":"0","COUNTRY_CODE":"US","SITE":"AFETR","GP_ID":"199428069","DECAY_DATE":null,"MEAN_MOTION_DOT":"-0.00000308","ARG_OF_PERICENTER":"71.4172","OBJECT_ID":"2021-027H","REV_AT_EPOCH":"5415","REF_FRAME":"TEME","TIME_SYSTEM":"UTC","RCS_SIZE":"LARGE","NORAD_CAT_ID":"48099","BSTAR":"-0.00000176510000","LAUNCH_DATE":"2021-04-07","PERIAPSIS":"546.298","CENTER_NAME":"EARTH","EPOCH":"2022-03-22T14:32:24.658080","RA_OF_ASC_NODE":"192.3241","TLE_LINE2":"2 48099  53.0562 192.3241 0001389  71.4172 288.6968 15.06385012 54151","MEAN_MOTION":"15.06385012","FILE":"3370190","ECCENTRICITY":"0.00013890","OBJECT_NAME":"STARLINK-2428","ELEMENT_SET_NO":"999","INCLINATION":"53.0562","SEMIMAJOR_AXIS":"6925.394","PERIOD":"95.593"},{"TIME_SYSTEM":"UTC","RCS_SIZE":"MEDIUM","NORAD_CAT_ID":"48100","LAUNCH_DATE":"2021-04-07","BSTAR":"-0.00079156000000","PERIAPSIS":"545.960","EPOCH":"2022-03-22T15:12:11.692224","CENTER_NAME":"EARTH","TLE_LINE2":"2 48100  53.0547 172.2009 0001594  54.7341 305.3797 15.06448739 54441","RA_OF_ASC_NODE":"172.2009","FILE":"3370190","MEAN_MOTION":"15.06448739","ECCENTRICITY":"0.00015940","OBJECT_NAME":"STARLINK-2430","SEMIMAJOR_AXIS":"6925.199","ELEMENT_SET_NO":"999","INCLINATION":"53.0547","PERIOD":"95.589","APOAPSIS":"548.168","MEAN_ANOMALY":"305.3797","MEAN_MOTION_DDOT":"0.0000000000000","TLE_LINE1":"1 48100U 21027J   22081.63346866 -.00012068  00000-0 -79156-3 0  9990","CLASSIFICATION_TYPE":"U","OBJECT_TYPE":"PAYLOAD","MEAN_ELEMENT_THEORY":"SGP4","EPHEMERIS_TYPE":"0","COUNTRY_CODE":"US","SITE":"AFETR","GP_ID":"199427818","DECAY_DATE":null,"OBJECT_ID":"2021-027J","ARG_OF_PERICENTER":"54.7341","MEAN_MOTION_DOT":"-0.00012068","REV_AT_EPOCH":"5444","REF_FRAME":"TEME"},{"OBJECT_NAME":"STARLINK-2436","ECCENTRICITY":"0.00015080","INCLINATION":"53.0532","ELEMENT_SET_NO":"999","SEMIMAJOR_AXIS":"6925.365","PERIOD":"95.592","RA_OF_ASC_NODE":"182.5745","TLE_LINE2":"2 48101  53.0532 182.5745 0001508  75.6819 284.4337 15.06394786 54296","MEAN_MOTION":"15.06394786","FILE":"3369829","PERIAPSIS":"546.185","CENTER_NAME":"EARTH","EPOCH":"2022-03-22T13:12:44.565120","TIME_SYSTEM":"UTC","RCS_SIZE":"LARGE","NORAD_CAT_ID":"48101","BSTAR":"-0.00008185100000","LAUNCH_DATE":"2021-04-07","ARG_OF_PERICENTER":"75.6819","MEAN_MOTION_DOT":"-0.00001500","OBJECT_ID":"2021-027K","REV_AT_EPOCH":"5429","REF_FRAME":"TEME","SITE":"AFETR","GP_ID":"199395800","DECAY_DATE":null,"MEAN_ELEMENT_THEORY":"SGP4","EPHEMERIS_TYPE":"0","COUNTRY_CODE":"US","APOAPSIS":"548.274","CLASSIFICATION_TYPE":"U","TLE_LINE1":"1 48101U 21027K   22081.55051580 -.00001500  00000-0 -81851-4 0  9993","MEAN_ANOMALY":"284.4337","MEAN_MOTION_DDOT":"0.0000000000000","OBJECT_TYPE":"PAYLOAD"},{"EPOCH":"2022-03-22T14:13:49.039680","CENTER_NAME":"EARTH","PERIAPSIS":"546.280","LAUNCH_DATE":"2021-04-07","BSTAR":"-0.00019323000000","NORAD_CAT_ID":"48102","RCS_SIZE":"LARGE","TIME_SYSTEM":"UTC","PERIOD":"95.593","SEMIMAJOR_AXIS":"6925.371","INCLINATION":"53.0549","ELEMENT_SET_NO":"999","OBJECT_NAME":"STARLINK-2437","ECCENTRICITY":"0.00013810","FILE":"3370190","MEAN_MOTION":"15.06392580","TLE_LINE2":"2 48102  53.0549 172.3761 0001381  68.2641 291.8495 15.06392580 54433","RA_OF_ASC_NODE":"172.3761","COUNTRY_CODE":"US","EPHEMERIS_TYPE":"0","MEAN_ELEMENT_THEORY":"SGP4","OBJECT_TYPE":"PAYLOAD","MEAN_MOTION_DDOT":"0.0000000000000","MEAN_ANOMALY":"291.8495","TLE_LINE1":"1 48102U 21027L   22081.59292870 -.00003158  00000-0 -19323-3 0  9992","CLASSIFICATION_TYPE":"U","APOAPSIS":"548.193","REV_AT_EPOCH":"5443","REF_FRAME":"TEME","OBJECT_ID":"2021-027L","ARG_OF_PERICENTER":"68.2641","MEAN_MOTION_DOT":"-0.00003158","DECAY_DATE":null,"GP_ID":"199429318","SITE":"AFETR"},{"TLE_LINE1":"1 48103U 21027M   22081.73299975 -.00001737  00000-0 -97749-4 0  9992","CLASSIFICATION_TYPE":"U","MEAN_ANOMALY":"291.2642","MEAN_MOTION_DDOT":"0.0000000000000","APOAPSIS":"548.206","OBJECT_TYPE":"PAYLOAD","MEAN_ELEMENT_THEORY":"SGP4","COUNTRY_CODE":"US","EPHEMERIS_TYPE":"0","GP_ID":"199427569","SITE":"AFETR","DECAY_DATE":null,"ARG_OF_PERICENTER":"68.8497","MEAN_MOTION_DOT":"-0.00001737","OBJECT_ID":"2021-027M","REV_AT_EPOCH":"5445","REF_FRAME":"TEME","NORAD_CAT_ID":"48103","TIME_SYSTEM":"UTC","RCS_SIZE":"LARGE","BSTAR":"-0.00009774900000","LAUNCH_DATE":"2021-04-07","CENTER_NAME":"EARTH","EPOCH":"2022-03-22T17:35:31.178400","PERIAPSIS":"546.261","MEAN_MOTION":"15.06393550","FILE":"3370190","RA_OF_ASC_NODE":"171.7366","TLE_LINE2":"2 48103  53.0546 171.7366 0001404  68.8497 291.2642 15.06393550 54454","OBJECT_NAME":"STARLINK-2438","ECCENTRICITY":"0.00014040","PERIOD":"95.593","ELEMENT_SET_NO":"999","INCLINATION":"53.0546","SEMIMAJOR_AXIS":"6925.368"},{"MEAN_MOTION":"15.06397655","FILE":"3369944","RA_OF_ASC_NODE":"176.7040","TLE_LINE2":"2 48104  53.0532 176.7040 0001337  72.9432 287.1703 15.06397655 53994","PERIOD":"95.592","ELEMENT_SET_NO":"999","INCLINATION":"53.0532","SEMIMAJOR_AXIS":"6925.356","OBJECT_NAME":"STARLINK-2439","ECCENTRICITY":"0.00013370","BSTAR":"0.00066339000000","LAUNCH_DATE":"2021-04-07","NORAD_CAT_ID":"48104","TIME_SYSTEM":"UTC","RCS_SIZE":"LARGE","CENTER_NAME":"EARTH","EPOCH":"2022-03-22T17:53:26.173248","PERIAPSIS":"546.295","DECAY_DATE":null,"GP_ID":"199401693","SITE":"AFETR","REV_AT_EPOCH":"5399","REF_FRAME":"TEME","ARG_OF_PERICENTER":"72.9432","MEAN_MOTION_DOT":"0.00009613","OBJECT_ID":"2021-027N","OBJECT_TYPE":"PAYLOAD","CLASSIFICATION_TYPE":"U","TLE_LINE1":"1 48104U 21027N   22081.74544182  .00009613  00000-0  66339-3 0  9996","MEAN_ANOMALY":"287.1703","MEAN_MOTION_DDOT":"0.0000000000000","APOAPSIS":"548.147","COUNTRY_CODE":"US","EPHEMERIS_TYPE":"0","MEAN_ELEMENT_THEORY":"SGP4"},{"OBJECT_ID":"2021-027P","MEAN_MOTION_DOT":"0.00001012","ARG_OF_PERICENTER":"55.2226","REV_AT_EPOCH":"5512","REF_FRAME":"TEME","GP_ID":"199395306","SITE":"AFETR","DECAY_DATE":null,"MEAN_ELEMENT_THEORY":"SGP4","COUNTRY_CODE":"US","EPHEMERIS_TYPE":"0","MEAN_MOTION_DDOT":"0.0000000000000","MEAN_ANOMALY":"304.8933","TLE_LINE1":"1 48105U 21027P   22081.52013922  .00001012  00000-0  86813-4 0  9991","CLASSIFICATION_TYPE":"U","APOAPSIS":"548.482","OBJECT_TYPE":"PAYLOAD","ECCENTRICITY":"0.00018150","OBJECT_NAME":"STARLINK-2440","PERIOD":"95.592","SEMIMAJOR_AXIS":"6925.360","ELEMENT_SET_NO":"999","INCLINATION":"53.0561","FILE":"3369829","MEAN_MOTION":"15.06396369","TLE_LINE2":"2 48105  53.0561 122.7060 0001815  55.2226 304.8933 15.06396369 55126","RA_OF_ASC_NODE":"122.7060","EPOCH":"2022-03-22T12:29:00.028608","CENTER_NAME":"EARTH","PERIAPSIS":"545.968","NORAD_CAT_ID":"48105","RCS_SIZE":"LARGE","TIME_SYSTEM":"UTC","LAUNCH_DATE":"2021-04-07","BSTAR":"0.00008681300000"}];
